IDEFIX & ARIANE 42P R/B 
1 27422U 02021B   25358.81982889  .00000298  00000+0  12975-3 0  9993
2 27422  98.5802 293.3547 0012766  51.0338 309.1981 14.30958608233313
AQUA                    
1 27424U 02022A   25358.80455341  .00000926  00000+0  19561-3 0  9999
2 27424  98.4055 319.8810 0001809 102.1365 317.5475 14.61757572257795
CZ-4B R/B               
1 27432U 02024C   25359.15693536  .00000047  00000+0  47278-4 0  9990
2 27432  98.8981  47.8844 0049369 233.9663 143.3082 14.14530464218702
MIDORI II (ADEOS-II)    
1 27597U 02056A   25359.10690818  .00000294  00000+0  13337-3 0  9994
2 27597  98.7655 312.1292 0000817 146.4585 213.6648 14.29213679199644
H-2A R/B                
1 27601U 02056E   25358.89386911  .00000412  00000+0  15895-3 0  9994
2 27601  98.3084 317.1677 0070913  25.3796  34.7982 14.33686472203398
CZ-4B R/B               
1 28059U 03049C   25358.97472443  .00000425  00000+0  10901-3 0  9997
2 28059  98.6798 346.0013 0049379  99.4741 261.2041 14.54920686175730
CZ-2C R/B               
1 28222U 04012C   25359.15144988  .00041486  00000+0  58298-3 0  9994
2 28222  97.7395  52.8045 0016638 221.8687 138.1295 15.56431000192657
SL-16 R/B               
1 28353U 04021B   25359.13781272  .00000147  00000+0  10104-3 0  9993
2 28353  71.0004  28.9473 0004620 179.1704 180.9426 14.14579740112296
CZ-4B R/B               
1 28415U 04035C   25359.07380706  .00008521  00000+0  31415-3 0  9999
2 28415  97.3591  29.2532 0031740 231.6155 128.2233 15.27567117168511
CZ-2C R/B               
1 28480U 04046B   25359.01947312  .00000284  00000+0  12052-3 0  9993
2 28480  98.1998 273.6346 0139905  16.1885 344.3700 14.26947802 97858
ARIANE 5 R/B            
1 28499U 04049H   25359.05045913  .00001318  00000+0  15222-3 0  9997
2 28499  98.2529 159.7738 0083496 232.5131 126.8470 14.85042877134716
CZ-2D R/B               
1 28738U 05024B   25359.02458816  .00032150  00000+0  49946-3 0  9992
2 28738  97.3629   6.7989 0003558 315.4711  44.6256 15.53891170128163
